ONEWEB-0538             
1 56047U 23043B   23250.47703883  .00001785  00000+0  18676-3 0  9997
2 56047  86.8954  78.9090 0004717  95.5007 264.6758 14.89045017 25657
ONEWEB-0546             
1 56048U 23043C   23250.78714476  .00007784  00000+0  82503-3 0  9997
2 56048  86.8879  78.6997 0000404 324.7986  35.3214 14.88998383 25707
ONEWEB-0547             
1 56049U 23043D   23250.58334491 -.00009553  00000+0 -18922-1 0  9991
2 56049  87.9665  85.7871 0003757  90.1461  16.1074 13.35328182  5455
ONEWEB-0548             
1 56050U 23043E   23250.23954810  .00001636  00000+0  17141-3 0  9994
2 56050  86.8971  79.0385 0001275  91.6189 268.5183 14.88950861 24704
ONEWEB-0549             
1 56051U 23043F   23250.58334491 -.00015451  00000+0 -30462-1 0  9991
2 56051  87.9636  85.8041 0002839  76.2586  49.8287 13.35646639  5559
ONEWEB-0550             
1 56052U 23043G   23250.91667824  .00042630  00000+0  84084-1 0  9994
2 56052  87.9699  85.7444 0004091  92.5344  42.3669 13.35105538 25260
ONEWEB-0551             
1 56053U 23043H   23250.53788606 -.00000288  00000+0 -80008-3 0  9994
2 56053  87.8962 101.0646 0002001  83.6429 276.4930 13.15550373 23126
ONEWEB-0552             
1 56054U 23043J   23250.58334491 -.00018618  00000+0 -37052-1 0  9994
2 56054  87.9715  85.8177 0000940  51.4001   9.2778 13.35045925  5587
